[{"OBJECT_NAME":"ION SCV-008","OBJECT_ID":"2023-001AU","EPOCH":"2026-03-09T19:46:58.662912","MEAN_MOTION":15.2722664,"ECCENTRICITY":0.00151921,"INCLINATION":97.5676,"RA_OF_ASC_NODE":163.606,"ARG_OF_PERICENTER":8.542,"MEAN_ANOMALY":351.6074,"EPHEMERIS_TYPE":0,"CLASSIFICATION_TYPE":"U","NORAD_CAT_ID":55051,"ELEMENT_SET_NO":999,"REV_AT_EPOCH":17616,"BSTAR":0.00031422806,"MEAN_MOTION_DOT":8.336e-5,"MEAN_MOTION_DDOT":0},{"OBJECT_NAME":"STARLINK-35069","OBJECT_ID":"2025-247D","EPOCH":"2026-03-09T20:12:53.138016","MEAN_MOTION":15.30209766,"ECCENTRICITY":0.00011635,"INCLINATION":53.1572,"RA_OF_ASC_NODE":190.9818,"ARG_OF_PERICENTER":60.6357,"MEAN_ANOMALY":299.476,"EPHEMERIS_TYPE":0,"CLASSIFICATION_TYPE":"U","NORAD_CAT_ID":66268,"ELEMENT_SET_NO":999,"REV_AT_EPOCH":2105,"BSTAR":0.0014253128,"MEAN_MOTION_DOT":0.00042107,"MEAN_MOTION_DDOT":0}]
